ONEWEB-0657             
1 55818U 23029Y   25209.48690671  .00000093  00000+0  20048-3 0  9990
2 55818  87.9230   9.3381 0001054  91.8514 268.2740 13.19726493116215
ONEWEB-0658             
1 55819U 23029Z   25209.48216092  .00000063  00000+0  12536-3 0  9992
2 55819  87.9237   9.2727 0002028  80.0709 280.0653 13.19726978116228
ONEWEB-0660             
1 55820U 23029AA  25209.47383463  .00000254  00000+0  65176-3 0  9990
2 55820  87.9066 354.0958 0002177  95.6311 264.5067 13.14501420116878
ONEWEB-0661             
1 55821U 23029AB  25209.43260074 -.00000168  00000+0 -48813-3 0  9994
2 55821  87.9065 354.1754 0002197  97.7655 262.3724 13.14502003116851
ONEWEB-0662             
1 55822U 23029AC  25209.46748937  .00000212  00000+0  53629-3 0  9996
2 55822  87.9068 354.1753 0002162  92.5990 267.5387 13.14501762116900
ONEWEB-0663             
1 55823U 23029AD  25209.62575965  .00000049  00000+0  88676-4 0  9993
2 55823  87.9302 338.9382 0002264  91.3304 268.8089 13.20841412118438
ONEWEB-0664             
1 55824U 23029AE  25209.63421631  .00000098  00000+0  20939-3 0  9996
2 55824  87.9296 338.9589 0002160 106.5192 253.6179 13.20772386118434
ONEWEB-0665             
1 55825U 23029AF  25209.81002682 -.00000221  00000+0 -63154-3 0  9994
2 55825  87.9069 354.0749 0002079  92.7873 267.3495 13.14503052117618
ONEWEB-0666             
1 55826U 23029AG  25209.62789917  .00000076  00000+0  15530-3 0  9998
2 55826  87.9294 338.9487 0001152 105.7124 254.4136 13.20772155118444
ONEWEB-0667             
1 55827U 23029AH  25209.62159233  .00000091  00000+0  19207-3 0  9993
2 55827  87.9287 338.8794 0002118  98.1647 261.9727 13.20771667118430
ONEWEB-0669             
1 55828U 23029AJ  25209.38958301  .00000098  00000+0  20939-3 0  9991
2 55828  87.9292 338.9630 0001907 120.1108 240.0215 13.20771303118404
ONEWEB-0670             
1 55829U 23029AK  25209.63558506  .00000195  00000+0  49077-3 0  9995
2 55829  87.9073 354.1288 0002218 100.7957 259.3422 13.14504361116922
ONEWEB-0671             
1 55830U 23029AL  25209.47743205  .00000091  00000+0  19539-3 0  9996
2 55830  87.9229   9.3326 0002063  94.8456 265.2913 13.19726010116208
ONEWEB-0672             
1 55831U 23029AM  25209.61210448  .00000172  00000+0  39084-3 0  9998
2 55831  87.9293 338.9048 0001624 104.3657 255.7656 13.20773734118436
ONEWEB-0673             
1 55832U 23029AN  25209.45373848  .00000096  00000+0  20755-3 0  9995
2 55832  87.9235   9.3006 0001919  87.4679 272.6673 13.19725944116206
ONEWEB-0674             
1 55833U 23029AP  25209.45164384  .00000146  00000+0  35895-3 0  9996
2 55833  87.9066 354.1501 0002278 104.1068 256.0315 13.14502633116884
ONEWEB-0675             
1 55834U 23029AQ  25209.46954049  .00000070  00000+0  14176-3 0  9998
2 55834  87.9227   9.3455 0001551  87.7350 272.3961 13.19725641116221
