[{"OBJECT_NAME":"ONEWEB-0657","OBJECT_ID":"2023-029Y","EPOCH":"2025-07-28T11:41:08.739744","MEAN_MOTION":13.19726493,"ECCENTRICITY":0.0001054,"INCLINATION":87.923,"RA_OF_ASC_NODE":9.3381,"ARG_OF_PERICENTER":91.8514,"MEAN_ANOMALY":268.274,"EPHEMERIS_TYPE":0,"CLASSIFICATION_TYPE":"U","NORAD_CAT_ID":55818,"ELEMENT_SET_NO":999,"REV_AT_EPOCH":11621,"BSTAR":0.00020048,"MEAN_MOTION_DOT":9.3e-7,"MEAN_MOTION_DDOT":0},{"OBJECT_NAME":"ONEWEB-0658","OBJECT_ID":"2023-029Z","EPOCH":"2025-07-28T11:34:18.703488","MEAN_MOTION":13.19726978,"ECCENTRICITY":0.0002028,"INCLINATION":87.9237,"RA_OF_ASC_NODE":9.2727,"ARG_OF_PERICENTER":80.0709,"MEAN_ANOMALY":280.0653,"EPHEMERIS_TYPE":0,"CLASSIFICATION_TYPE":"U","NORAD_CAT_ID":55819,"ELEMENT_SET_NO":999,"REV_AT_EPOCH":11622,"BSTAR":0.00012536,"MEAN_MOTION_DOT":6.3e-7,"MEAN_MOTION_DDOT":0},{"OBJECT_NAME":"ONEWEB-0660","OBJECT_ID":"2023-029AA","EPOCH":"2025-07-28T11:22:19.312032","MEAN_MOTION":13.1450142,"ECCENTRICITY":0.0002177,"INCLINATION":87.9066,"RA_OF_ASC_NODE":354.0958,"ARG_OF_PERICENTER":95.6311,"MEAN_ANOMALY":264.5067,"EPHEMERIS_TYPE":0,"CLASSIFICATION_TYPE":"U","NORAD_CAT_ID":55820,"ELEMENT_SET_NO":999,"REV_AT_EPOCH":11687,"BSTAR":0.00065176,"MEAN_MOTION_DOT":2.54e-6,"MEAN_MOTION_DDOT":0},{"OBJECT_NAME":"ONEWEB-0661","OBJECT_ID":"2023-029AB","EPOCH":"2025-07-28T10:22:56.703936","MEAN_MOTION":13.14502003,"ECCENTRICITY":0.0002197,"INCLINATION":87.9065,"RA_OF_ASC_NODE":354.1754,"ARG_OF_PERICENTER":97.7655,"MEAN_ANOMALY":262.3724,"EPHEMERIS_TYPE":0,"CLASSIFICATION_TYPE":"U","NORAD_CAT_ID":55821,"ELEMENT_SET_NO":999,"REV_AT_EPOCH":11685,"BSTAR":-0.00048813,"MEAN_MOTION_DOT":-1.68e-6,"MEAN_MOTION_DDOT":0},{"OBJECT_NAME":"ONEWEB-0662","OBJECT_ID":"2023-029AC","EPOCH":"2025-07-28T11:13:11.081568","MEAN_MOTION":13.14501762,"ECCENTRICITY":0.0002162,"INCLINATION":87.9068,"RA_OF_ASC_NODE":354.1753,"ARG_OF_PERICENTER":92.599,"MEAN_ANOMALY":267.5387,"EPHEMERIS_TYPE":0,"CLASSIFICATION_TYPE":"U","NORAD_CAT_ID":55822,"ELEMENT_SET_NO":999,"REV_AT_EPOCH":11690,"BSTAR":0.00053629,"MEAN_MOTION_DOT":2.12e-6,"MEAN_MOTION_DDOT":0},{"OBJECT_NAME":"ONEWEB-0663","OBJECT_ID":"2023-029AD","EPOCH":"2025-07-28T15:01:05.633760","MEAN_MOTION":13.20841412,"ECCENTRICITY":0.0002264,"INCLINATION":87.9302,"RA_OF_ASC_NODE":338.9382,"ARG_OF_PERICENTER":91.3304,"MEAN_ANOMALY":268.8089,"EPHEMERIS_TYPE":0,"CLASSIFICATION_TYPE":"U","NORAD_CAT_ID":55823,"ELEMENT_SET_NO":999,"REV_AT_EPOCH":11843,"BSTAR":8.8676e-5,"MEAN_MOTION_DOT":4.9e-7,"MEAN_MOTION_DDOT":0},{"OBJECT_NAME":"ONEWEB-0664","OBJECT_ID":"2023-029AE","EPOCH":"2025-07-28T15:13:16.289184","MEAN_MOTION":13.20772386,"ECCENTRICITY":0.000216,"INCLINATION":87.9296,"RA_OF_ASC_NODE":338.9589,"ARG_OF_PERICENTER":106.5192,"MEAN_ANOMALY":253.6179,"EPHEMERIS_TYPE":0,"CLASSIFICATION_TYPE":"U","NORAD_CAT_ID":55824,"ELEMENT_SET_NO":999,"REV_AT_EPOCH":11843,"BSTAR":0.00020939,"MEAN_MOTION_DOT":9.8e-7,"MEAN_MOTION_DDOT":0},{"OBJECT_NAME":"ONEWEB-0665","OBJECT_ID":"2023-029AF","EPOCH":"2025-07-28T19:26:26.317248","MEAN_MOTION":13.14503052,"ECCENTRICITY":0.0002079,"INCLINATION":87.9069,"RA_OF_ASC_NODE":354.0749,"ARG_OF_PERICENTER":92.7873,"MEAN_ANOMALY":267.3495,"EPHEMERIS_TYPE":0,"CLASSIFICATION_TYPE":"U","NORAD_CAT_ID":55825,"ELEMENT_SET_NO":999,"REV_AT_EPOCH":11761,"BSTAR":-0.00063154,"MEAN_MOTION_DOT":-2.21e-6,"MEAN_MOTION_DDOT":0},{"OBJECT_NAME":"ONEWEB-0666","OBJECT_ID":"2023-029AG","EPOCH":"2025-07-28T15:04:10.488288","MEAN_MOTION":13.20772155,"ECCENTRICITY":0.0001152,"INCLINATION":87.9294,"RA_OF_ASC_NODE":338.9487,"ARG_OF_PERICENTER":105.7124,"MEAN_ANOMALY":254.4136,"EPHEMERIS_TYPE":0,"CLASSIFICATION_TYPE":"U","NORAD_CAT_ID":55826,"ELEMENT_SET_NO":999,"REV_AT_EPOCH":11844,"BSTAR":0.0001553,"MEAN_MOTION_DOT":7.6e-7,"MEAN_MOTION_DDOT":0},{"OBJECT_NAME":"ONEWEB-0667","OBJECT_ID":"2023-029AH","EPOCH":"2025-07-28T14:55:05.577312","MEAN_MOTION":13.20771667,"ECCENTRICITY":0.0002118,"INCLINATION":87.9287,"RA_OF_ASC_NODE":338.8794,"ARG_OF_PERICENTER":98.1647,"MEAN_ANOMALY":261.9727,"EPHEMERIS_TYPE":0,"CLASSIFICATION_TYPE":"U","NORAD_CAT_ID":55827,"ELEMENT_SET_NO":999,"REV_AT_EPOCH":11843,"BSTAR":0.00019207,"MEAN_MOTION_DOT":9.1e-7,"MEAN_MOTION_DDOT":0},{"OBJECT_NAME":"ONEWEB-0669","OBJECT_ID":"2023-029AJ","EPOCH":"2025-07-28T09:20:59.972064","MEAN_MOTION":13.20771303,"ECCENTRICITY":0.0001907,"INCLINATION":87.9292,"RA_OF_ASC_NODE":338.963,"ARG_OF_PERICENTER":120.1108,"MEAN_ANOMALY":240.0215,"EPHEMERIS_TYPE":0,"CLASSIFICATION_TYPE":"U","NORAD_CAT_ID":55828,"ELEMENT_SET_NO":999,"REV_AT_EPOCH":11840,"BSTAR":0.00020939,"MEAN_MOTION_DOT":9.8e-7,"MEAN_MOTION_DDOT":0},{"OBJECT_NAME":"ONEWEB-0670","OBJECT_ID":"2023-029AK","EPOCH":"2025-07-28T15:15:14.549184","MEAN_MOTION":13.14504361,"ECCENTRICITY":0.0002218,"INCLINATION":87.9073,"RA_OF_ASC_NODE":354.1288,"ARG_OF_PERICENTER":100.7957,"MEAN_ANOMALY":259.3422,"EPHEMERIS_TYPE":0,"CLASSIFICATION_TYPE":"U","NORAD_CAT_ID":55829,"ELEMENT_SET_NO":999,"REV_AT_EPOCH":11692,"BSTAR":0.00049077,"MEAN_MOTION_DOT":1.95e-6,"MEAN_MOTION_DDOT":0},{"OBJECT_NAME":"ONEWEB-0671","OBJECT_ID":"2023-029AL","EPOCH":"2025-07-28T11:27:30.129120","MEAN_MOTION":13.1972601,"ECCENTRICITY":0.0002063,"INCLINATION":87.9229,"RA_OF_ASC_NODE":9.3326,"ARG_OF_PERICENTER":94.8456,"MEAN_ANOMALY":265.2913,"EPHEMERIS_TYPE":0,"CLASSIFICATION_TYPE":"U","NORAD_CAT_ID":55830,"ELEMENT_SET_NO":999,"REV_AT_EPOCH":11620,"BSTAR":0.00019539,"MEAN_MOTION_DOT":9.1e-7,"MEAN_MOTION_DDOT":0},{"OBJECT_NAME":"ONEWEB-0672","OBJECT_ID":"2023-029AM","EPOCH":"2025-07-28T14:41:25.827072","MEAN_MOTION":13.20773734,"ECCENTRICITY":0.0001624,"INCLINATION":87.9293,"RA_OF_ASC_NODE":338.9048,"ARG_OF_PERICENTER":104.3657,"MEAN_ANOMALY":255.7656,"EPHEMERIS_TYPE":0,"CLASSIFICATION_TYPE":"U","NORAD_CAT_ID":55831,"ELEMENT_SET_NO":999,"REV_AT_EPOCH":11843,"BSTAR":0.00039084,"MEAN_MOTION_DOT":1.72e-6,"MEAN_MOTION_DDOT":0},{"OBJECT_NAME":"ONEWEB-0673","OBJECT_ID":"2023-029AN","EPOCH":"2025-07-28T10:53:23.004672","MEAN_MOTION":13.19725944,"ECCENTRICITY":0.0001919,"INCLINATION":87.9235,"RA_OF_ASC_NODE":9.3006,"ARG_OF_PERICENTER":87.4679,"MEAN_ANOMALY":272.6673,"EPHEMERIS_TYPE":0,"CLASSIFICATION_TYPE":"U","NORAD_CAT_ID":55832,"ELEMENT_SET_NO":999,"REV_AT_EPOCH":11620,"BSTAR":0.00020755,"MEAN_MOTION_DOT":9.6e-7,"MEAN_MOTION_DDOT":0},{"OBJECT_NAME":"ONEWEB-0674","OBJECT_ID":"2023-029AP","EPOCH":"2025-07-28T10:50:22.027776","MEAN_MOTION":13.14502633,"ECCENTRICITY":0.0002278,"INCLINATION":87.9066,"RA_OF_ASC_NODE":354.1501,"ARG_OF_PERICENTER":104.1068,"MEAN_ANOMALY":256.0315,"EPHEMERIS_TYPE":0,"CLASSIFICATION_TYPE":"U","NORAD_CAT_ID":55833,"ELEMENT_SET_NO":999,"REV_AT_EPOCH":11688,"BSTAR":0.00035895,"MEAN_MOTION_DOT":1.46e-6,"MEAN_MOTION_DDOT":0},{"OBJECT_NAME":"ONEWEB-0675","OBJECT_ID":"2023-029AQ","EPOCH":"2025-07-28T11:16:08.298336","MEAN_MOTION":13.19725641,"ECCENTRICITY":0.0001551,"INCLINATION":87.9227,"RA_OF_ASC_NODE":9.3455,"ARG_OF_PERICENTER":87.735,"MEAN_ANOMALY":272.3961,"EPHEMERIS_TYPE":0,"CLASSIFICATION_TYPE":"U","NORAD_CAT_ID":55834,"ELEMENT_SET_NO":999,"REV_AT_EPOCH":11622,"BSTAR":0.00014176,"MEAN_MOTION_DOT":7.0e-7,"MEAN_MOTION_DDOT":0}]
